GSAT0218 (GALILEO 22)   
1 43058U 17079D   26032.07418155  .00000060  00000+0  00000+0 0  9992
2 43058  55.1144 225.2451 0001944 318.8162  41.1880  1.70474229 50698
GOES 17                 
1 43226U 18022A   26032.90082986 -.00000192  00000+0  00000+0 0  9996
2 43226   0.5894  88.2206 0003003 207.4398  71.2007  1.00270248 29068
GSAT0221 (GALILEO 25)   
1 43564U 18060A   26031.97709630 -.00000102  00000+0  00000+0 0  9992
2 43564  57.2140 345.4613 0006328 298.4870  61.4322  1.70475392 46844
GSAT0222 (GALILEO 26)   
1 43565U 18060B   26032.19652015 -.00000103  00000+0  00000+0 0  9993
2 43565  57.2175 345.4586 0005240 279.1026  80.8213  1.70475117 46897
GSAT0219 (GALILEO 23)   
1 43566U 18060C   26031.24442755 -.00000101  00000+0  00000+0 0  9995
2 43566  57.2171 345.4859 0005653 304.7808  55.1491  1.70475322 46855
GSAT0220 (GALILEO 24)   
1 43567U 18060D   26032.63854286 -.00000104  00000+0  00000+0 0  9999
2 43567  57.2163 345.4479 0005852 300.9494  58.9764  1.70475269 46860
BEIDOU-3 M13            
1 43622U 18072A   26032.14927962 -.00000019  00000+0  00000+0 0  9997
2 43622  56.5035  67.1504 0007971 302.7096  57.2853  1.86230778 50127
BEIDOU-3 M14            
1 43623U 18072B   26032.01474431 -.00000019  00000+0  00000+0 0  9992
2 43623  56.5051  67.1488 0005397 324.7118  35.3244  1.86230745 50110
NAVSTAR 77 (USA 289)    
1 43873U 18109A   26032.63721329 -.00000011  00000+0  00000+0 0  9991
2 43873  55.5954  97.5354 0037785 197.2047 335.0835  2.00555220 52356
METEOR-M2 2             
1 44387U 19038A   26032.94852206  .00000063  00000+0  47195-4 0  9994
2 44387  98.9025  18.3210 0002191  64.2639 295.8765 14.24317993342047
NAVSTAR 78 (USA 293)    
1 44506U 19056A   26032.28113663 -.00000100  00000+0  00000+0 0  9993
2 44506  55.6997 336.5460 0057758 198.5946 335.6694  2.00567362 47348
BEIDOU-3 M24            
1 44542U 19061A   26032.92962162  .00000015  00000+0  00000+0 0  9990
2 44542  54.4014 187.2885 0009139  25.7089 334.2822  1.86228814 43271
BEIDOU-3 M23            
1 44543U 19061B   26030.63819267  .00000036  00000+0  00000+0 0  9997
2 44543  54.4001 187.3342 0005563  23.7219 152.4453  1.86227081 43238
BEIDOU-3 M22            
1 44793U 19078A   26029.01068938 -.00000060  00000+0  00000+0 0  9991
2 44793  54.0631 304.7270 0006785  29.9167 330.1584  1.86231886 42059
BEIDOU-3 M21            
1 44794U 19078B   26031.83426799 -.00000060  00000+0  00000+0 0  9998
2 44794  54.0333 304.5914 0004966  24.3367 335.7313  1.86227479 42113
ELEKTRO-L 3             
1 44903U 19095A   26032.93359003 -.00000106  00000+0  00000+0 0  9995
2 44903   0.0557  99.9203 0002507 202.1377 242.1498  1.00270838 22358
NAVSTAR 79 (USA 304)    
1 45854U 20041A   26030.87704735 -.00000049  00000+0  00000+0 0  9997
2 45854  56.5828  34.2725 0061076 204.8277 338.6334  2.00560793 41282
